[{"OBJECT_NAME":"STARLINK-36704","OBJECT_ID":"2026-025E","EPOCH":"2026-03-03T22:35:55.502304","MEAN_MOTION":15.75274883,"ECCENTRICITY":0.00016174,"INCLINATION":97.2846,"RA_OF_ASC_NODE":174.2131,"ARG_OF_PERICENTER":80.9996,"MEAN_ANOMALY":279.1452,"EPHEMERIS_TYPE":0,"CLASSIFICATION_TYPE":"U","NORAD_CAT_ID":67697,"ELEMENT_SET_NO":999,"REV_AT_EPOCH":503,"BSTAR":0.0021104726,"MEAN_MOTION_DOT":0.00328272,"MEAN_MOTION_DDOT":0},{"OBJECT_NAME":"STARLINK-36697","OBJECT_ID":"2026-025F","EPOCH":"2026-03-03T18:52:08.098176","MEAN_MOTION":15.81168156,"ECCENTRICITY":0.00024097,"INCLINATION":97.2844,"RA_OF_ASC_NODE":174.1192,"ARG_OF_PERICENTER":22.206,"MEAN_ANOMALY":337.9312,"EPHEMERIS_TYPE":0,"CLASSIFICATION_TYPE":"U","NORAD_CAT_ID":67698,"ELEMENT_SET_NO":999,"REV_AT_EPOCH":501,"BSTAR":0.0037022872,"MEAN_MOTION_DOT":0.00789537,"MEAN_MOTION_DDOT":0},{"OBJECT_NAME":"STARLINK-36716","OBJECT_ID":"2026-025G","EPOCH":"2026-03-03T18:00:02.000160","MEAN_MOTION":15.77553752,"ECCENTRICITY":0.00017878,"INCLINATION":97.2854,"RA_OF_ASC_NODE":174.0833,"ARG_OF_PERICENTER":78.1924,"MEAN_ANOMALY":81.6625,"EPHEMERIS_TYPE":0,"CLASSIFICATION_TYPE":"U","NORAD_CAT_ID":67699,"ELEMENT_SET_NO":999,"REV_AT_EPOCH":505,"BSTAR":-0.012004225,"MEAN_MOTION_DOT":-0.01752589,"MEAN_MOTION_DDOT":0},{"OBJECT_NAME":"STARLINK-36712","OBJECT_ID":"2026-025H","EPOCH":"2026-03-03T20:50:12.839424","MEAN_MOTION":15.75239763,"ECCENTRICITY":6.489e-5,"INCLINATION":97.285,"RA_OF_ASC_NODE":174.1587,"ARG_OF_PERICENTER":66.2861,"MEAN_ANOMALY":293.8472,"EPHEMERIS_TYPE":0,"CLASSIFICATION_TYPE":"U","NORAD_CAT_ID":67700,"ELEMENT_SET_NO":999,"REV_AT_EPOCH":502,"BSTAR":0.0024849865,"MEAN_MOTION_DOT":0.00388769,"MEAN_MOTION_DDOT":0},{"OBJECT_NAME":"STARLINK-36713","OBJECT_ID":"2026-025J","EPOCH":"2026-03-03T19:21:16.999200","MEAN_MOTION":15.75441394,"ECCENTRICITY":0.00032443,"INCLINATION":97.2853,"RA_OF_ASC_NODE":174.0896,"ARG_OF_PERICENTER":66.8532,"MEAN_ANOMALY":293.3074,"EPHEMERIS_TYPE":0,"CLASSIFICATION_TYPE":"U","NORAD_CAT_ID":67701,"ELEMENT_SET_NO":999,"REV_AT_EPOCH":502,"BSTAR":0.0033102379,"MEAN_MOTION_DOT":0.00531323,"MEAN_MOTION_DDOT":0},{"OBJECT_NAME":"STARLINK-36695","OBJECT_ID":"2026-025K","EPOCH":"2026-03-03T19:24:19.731744","MEAN_MOTION":15.75205945,"ECCENTRICITY":0.0001078,"INCLINATION":97.2862,"RA_OF_ASC_NODE":174.0853,"ARG_OF_PERICENTER":110.0581,"MEAN_ANOMALY":250.0801,"EPHEMERIS_TYPE":0,"CLASSIFICATION_TYPE":"U","NORAD_CAT_ID":67702,"ELEMENT_SET_NO":999,"REV_AT_EPOCH":501,"BSTAR":0.0017537079,"MEAN_MOTION_DOT":0.00270079,"MEAN_MOTION_DDOT":0},{"OBJECT_NAME":"STARLINK-36630","OBJECT_ID":"2026-025L","EPOCH":"2026-03-03T20:11:51.150336","MEAN_MOTION":15.80843409,"ECCENTRICITY":0.00016512,"INCLINATION":97.2854,"RA_OF_ASC_NODE":174.1946,"ARG_OF_PERICENTER":56.8513,"MEAN_ANOMALY":303.2913,"EPHEMERIS_TYPE":0,"CLASSIFICATION_TYPE":"U","NORAD_CAT_ID":67703,"ELEMENT_SET_NO":999,"REV_AT_EPOCH":502,"BSTAR":0.0022282152,"MEAN_MOTION_DOT":0.00450006,"MEAN_MOTION_DDOT":0},{"OBJECT_NAME":"STARLINK-36338","OBJECT_ID":"2026-025M","EPOCH":"2026-03-03T18:00:02.000160","MEAN_MOTION":15.75189706,"ECCENTRICITY":0.00012684,"INCLINATION":97.2854,"RA_OF_ASC_NODE":174.0767,"ARG_OF_PERICENTER":98.2045,"MEAN_ANOMALY":52.1598,"EPHEMERIS_TYPE":0,"CLASSIFICATION_TYPE":"U","NORAD_CAT_ID":67704,"ELEMENT_SET_NO":999,"REV_AT_EPOCH":495,"BSTAR":0.00010314938,"MEAN_MOTION_DOT":0.00015283,"MEAN_MOTION_DDOT":0},{"OBJECT_NAME":"STARLINK-36316","OBJECT_ID":"2026-025N","EPOCH":"2026-03-03T19:07:33.244320","MEAN_MOTION":15.75281088,"ECCENTRICITY":7.134e-5,"INCLINATION":97.2858,"RA_OF_ASC_NODE":174.1023,"ARG_OF_PERICENTER":95.9117,"MEAN_ANOMALY":264.2229,"EPHEMERIS_TYPE":0,"CLASSIFICATION_TYPE":"U","NORAD_CAT_ID":67705,"ELEMENT_SET_NO":999,"REV_AT_EPOCH":501,"BSTAR":0.0013484094,"MEAN_MOTION_DOT":0.00206752,"MEAN_MOTION_DDOT":0},{"OBJECT_NAME":"STARLINK-36707","OBJECT_ID":"2026-025P","EPOCH":"2026-03-03T18:00:02.000160","MEAN_MOTION":15.75173447,"ECCENTRICITY":0.00015037,"INCLINATION":97.2851,"RA_OF_ASC_NODE":174.1,"ARG_OF_PERICENTER":89.5399,"MEAN_ANOMALY":116.8283,"EPHEMERIS_TYPE":0,"CLASSIFICATION_TYPE":"U","NORAD_CAT_ID":67706,"ELEMENT_SET_NO":999,"REV_AT_EPOCH":474,"BSTAR":0.00025627825,"MEAN_MOTION_DOT":0.0003824,"MEAN_MOTION_DDOT":0},{"OBJECT_NAME":"STARLINK-36645","OBJECT_ID":"2026-025Q","EPOCH":"2026-03-03T19:13:08.249952","MEAN_MOTION":15.75247026,"ECCENTRICITY":5.277e-5,"INCLINATION":97.2858,"RA_OF_ASC_NODE":174.0969,"ARG_OF_PERICENTER":122.1876,"MEAN_ANOMALY":237.9441,"EPHEMERIS_TYPE":0,"CLASSIFICATION_TYPE":"U","NORAD_CAT_ID":67707,"ELEMENT_SET_NO":999,"REV_AT_EPOCH":501,"BSTAR":0.0015810316,"MEAN_MOTION_DOT":0.00243134,"MEAN_MOTION_DDOT":0},{"OBJECT_NAME":"STARLINK-36287","OBJECT_ID":"2026-025R","EPOCH":"2026-03-03T23:00:28.949760","MEAN_MOTION":15.80946967,"ECCENTRICITY":0.0001426,"INCLINATION":97.2853,"RA_OF_ASC_NODE":174.3399,"ARG_OF_PERICENTER":68.5859,"MEAN_ANOMALY":291.5561,"EPHEMERIS_TYPE":0,"CLASSIFICATION_TYPE":"U","NORAD_CAT_ID":67708,"ELEMENT_SET_NO":999,"REV_AT_EPOCH":505,"BSTAR":0.0015711159,"MEAN_MOTION_DOT":0.00313751,"MEAN_MOTION_DDOT":0},{"OBJECT_NAME":"STARLINK-36698","OBJECT_ID":"2026-025S","EPOCH":"2026-03-03T19:48:11.778912","MEAN_MOTION":15.80936277,"ECCENTRICITY":0.0001,"INCLINATION":97.2858,"RA_OF_ASC_NODE":174.2143,"ARG_OF_PERICENTER":113.2107,"MEAN_ANOMALY":246.9267,"EPHEMERIS_TYPE":0,"CLASSIFICATION_TYPE":"U","NORAD_CAT_ID":67709,"ELEMENT_SET_NO":999,"REV_AT_EPOCH":502,"BSTAR":0.0012405006,"MEAN_MOTION_DOT":0.0024563,"MEAN_MOTION_DDOT":0},{"OBJECT_NAME":"STARLINK-36344","OBJECT_ID":"2026-025T","EPOCH":"2026-03-03T18:00:02.000160","MEAN_MOTION":15.75152395,"ECCENTRICITY":0.00014944,"INCLINATION":97.2848,"RA_OF_ASC_NODE":174.1105,"ARG_OF_PERICENTER":77.6891,"MEAN_ANOMALY":152.6791,"EPHEMERIS_TYPE":0,"CLASSIFICATION_TYPE":"U","NORAD_CAT_ID":67710,"ELEMENT_SET_NO":999,"REV_AT_EPOCH":506,"BSTAR":0.00063900376,"MEAN_MOTION_DOT":0.00096105,"MEAN_MOTION_DDOT":0},{"OBJECT_NAME":"STARLINK-36687","OBJECT_ID":"2026-025U","EPOCH":"2026-03-03T19:51:31.887360","MEAN_MOTION":15.80974622,"ECCENTRICITY":0.00021276,"INCLINATION":97.2859,"RA_OF_ASC_NODE":174.2111,"ARG_OF_PERICENTER":72.3524,"MEAN_ANOMALY":287.7977,"EPHEMERIS_TYPE":0,"CLASSIFICATION_TYPE":"U","NORAD_CAT_ID":67711,"ELEMENT_SET_NO":999,"REV_AT_EPOCH":503,"BSTAR":0.0019303147,"MEAN_MOTION_DOT":0.00389403,"MEAN_MOTION_DDOT":0},{"OBJECT_NAME":"STARLINK-36705","OBJECT_ID":"2026-025V","EPOCH":"2026-03-03T20:16:10.409952","MEAN_MOTION":15.75206491,"ECCENTRICITY":0.00013962,"INCLINATION":97.2869,"RA_OF_ASC_NODE":174.1856,"ARG_OF_PERICENTER":77.1669,"MEAN_ANOMALY":282.9752,"EPHEMERIS_TYPE":0,"CLASSIFICATION_TYPE":"U","NORAD_CAT_ID":67712,"ELEMENT_SET_NO":999,"REV_AT_EPOCH":502,"BSTAR":0.002644268,"MEAN_MOTION_DOT":0.0041434,"MEAN_MOTION_DDOT":0}]
