STARLINK-36704          
1 67697U 26025E   26062.94161461  .00328272  00000+0  21105-2 0  9992
2 67697  97.2846 174.2131 0001617  80.9996 279.1452 15.75274883  5036
STARLINK-36697          
1 67698U 26025F   26062.78620484  .00789537  00000+0  37023-2 0  9991
2 67698  97.2844 174.1192 0002409  22.2060 337.9312 15.81168156  5010
STARLINK-36716          
1 67699U 26025G   26062.75002315 -.01752589  00000+0 -12004-1 0  9997
2 67699  97.2854 174.0833 0001787  78.1924  81.6625 15.77553752  5059
STARLINK-36712          
1 67700U 26025H   26062.86820416  .00388769  00000+0  24850-2 0  9997
2 67700  97.2850 174.1587 0000648  66.2861 293.8472 15.75239763  5023
STARLINK-36713          
1 67701U 26025J   26062.80644675  .00531323  00000+0  33102-2 0  9999
2 67701  97.2853 174.0896 0003244  66.8532 293.3074 15.75441394  5023
STARLINK-36695          
1 67702U 26025K   26062.80856171  .00270079  00000+0  17537-2 0  9998
2 67702  97.2862 174.0853 0001078 110.0581 250.0801 15.75205945  5013
STARLINK-36630          
1 67703U 26025L   26062.84156424  .00450006  00000+0  22282-2 0  9990
2 67703  97.2854 174.1946 0001651  56.8513 303.2913 15.80843409  5023
STARLINK-36338          
1 67704U 26025M   26062.75002315  .00015283  00000+0  10315-3 0  9999
2 67704  97.2854 174.0767 0001268  98.2045  52.1598 15.75189706  4955
STARLINK-36316          
1 67705U 26025N   26062.79691255  .00206752  00000+0  13484-2 0  9993
2 67705  97.2858 174.1023 0000713  95.9117 264.2229 15.75281088  5015
STARLINK-36707          
1 67706U 26025P   26062.75002315  .00038240  00000+0  25628-3 0  9992
2 67706  97.2851 174.1000 0001503  89.5399 116.8283 15.75173447  4743
STARLINK-36645          
1 67707U 26025Q   26062.80078993  .00243134  00000+0  15810-2 0  9995
2 67707  97.2858 174.0969 0000527 122.1876 237.9441 15.75247026  5010
STARLINK-36287          
1 67708U 26025R   26062.95866840  .00313751  00000+0  15711-2 0  9991
2 67708  97.2853 174.3399 0001426  68.5859 291.5561 15.80946967  5058
STARLINK-36698          
1 67709U 26025S   26062.82513633  .00245630  00000+0  12405-2 0  9994
2 67709  97.2858 174.2143 0001000 113.2107 246.9267 15.80936277  5029
STARLINK-36344          
1 67710U 26025T   26062.75002315  .00096105  00000+0  63900-3 0  9996
2 67710  97.2848 174.1105 0001494  77.6891 152.6791 15.75152395  5061
STARLINK-36687          
1 67711U 26025U   26062.82745240  .00389403  00000+0  19303-2 0  9999
2 67711  97.2859 174.2111 0002127  72.3524 287.7977 15.80974622  5035
STARLINK-36705          
1 67712U 26025V   26062.84456493  .00414340  00000+0  26443-2 0  9993
2 67712  97.2869 174.1856 0001396  77.1669 282.9752 15.75206491  5025
